start=new Date('2022-09-02T00:00:00.000Z').valueOf();
sats=[{"PERIOD":"95.437","CENTER_NAME":"EARTH","EPHEMERIS_TYPE":"0","APOAPSIS":"541.388","EPOCH":"2022-09-01T22:00:00.999936","INCLINATION":"53.2152","NORAD_CAT_ID":"52564","SEMIMAJOR_AXIS":"6917.876","MEAN_ANOMALY":"22.0641","MEAN_MOTION":"15.08841450","REF_FRAME":"TEME","RA_OF_ASC_NODE":"141.7017","COUNTRY_CODE":"US","MEAN_MOTION_DDOT":"0.0000000000000","TLE_LINE2":"2 52564  53.2152 141.7017 0002381  65.2216  22.0641 15.08841450  1304","OBJECT_TYPE":"PAYLOAD","LAUNCH_DATE":"2022-05-13","TIME_SYSTEM":"UTC","GP_ID":"211506147","ELEMENT_SET_NO":"999","CLASSIFICATION_TYPE":"U","ECCENTRICITY":"0.00023810","BSTAR":"-0.00156370000000","RCS_SIZE":"LARGE","OBJECT_NAME":"STARLINK-3959","DECAY_DATE":null,"TLE_LINE1":"1 52564U 22051AH  22244.91667824 -.00025091  00000-0 -15637-2 0  9992","ARG_OF_PERICENTER":"65.2216","REV_AT_EPOCH":"130","SITE":"AFWTR","PERIAPSIS":"538.094","FILE":"3554009","MEAN_ELEMENT_THEORY":"SGP4","MEAN_MOTION_DOT":"-0.00025091","OBJECT_ID":"2022-051AH"},{"EPOCH":"2022-09-01T22:00:00.999936","INCLINATION":"53.2149","APOAPSIS":"541.298","CENTER_NAME":"EARTH","EPHEMERIS_TYPE":"0","PERIOD":"95.437","MEAN_ANOMALY":"282.5587","MEAN_MOTION":"15.08843702","SEMIMAJOR_AXIS":"6917.869","NORAD_CAT_ID":"52565","TLE_LINE2":"2 52565  53.2149 126.6888 0002261  67.2806 282.5587 15.08843702  1307","MEAN_MOTION_DDOT":"0.0000000000000","RA_OF_ASC_NODE":"126.6888","REF_FRAME":"TEME","COUNTRY_CODE":"US","GP_ID":"211506005","LAUNCH_DATE":"2022-05-13","TIME_SYSTEM":"UTC","OBJECT_TYPE":"PAYLOAD","ELEMENT_SET_NO":"999","RCS_SIZE":"LARGE","ECCENTRICITY":"0.00022610","BSTAR":"-0.00105690000000","CLASSIFICATION_TYPE":"U","ARG_OF_PERICENTER":"67.2806","TLE_LINE1":"1 52565U 22051AJ  22244.91667824 -.00017072  00000-0 -10569-2 0  9992","REV_AT_EPOCH":"130","SITE":"AFWTR","DECAY_DATE":null,"OBJECT_NAME":"STARLINK-3911","MEAN_MOTION_DOT":"-0.00017072","OBJECT_ID":"2022-051AJ","PERIAPSIS":"538.170","FILE":"3554009","MEAN_ELEMENT_THEORY":"SGP4"},{"ELEMENT_SET_NO":"999","RCS_SIZE":"LARGE","ECCENTRICITY":"0.00026840","BSTAR":"-0.00317110000000","CLASSIFICATION_TYPE":"U","SITE":"AFWTR","REV_AT_EPOCH":"130","ARG_OF_PERICENTER":"65.1816","TLE_LINE1":"1 52566U 22051AK  22244.91667824 -.00050442  00000-0 -31711-2 0  9993","DECAY_DATE":null,"OBJECT_NAME":"STARLINK-3938","MEAN_MOTION_DOT":"-0.00050442","OBJECT_ID":"2022-051AK","FILE":"3554009","MEAN_ELEMENT_THEORY":"SGP4","PERIAPSIS":"537.811","EPOCH":"2022-09-01T22:00:00.999936","INCLINATION":"53.2173","APOAPSIS":"541.524","EPHEMERIS_TYPE":"0","CENTER_NAME":"EARTH","PERIOD":"95.436","MEAN_MOTION":"15.08865440","MEAN_ANOMALY":"142.1795","SEMIMAJOR_AXIS":"6917.803","NORAD_CAT_ID":"52566","TLE_LINE2":"2 52566  53.2173 141.6853 0002684  65.1816 142.1795 15.08865440  1306","MEAN_MOTION_DDOT":"0.0000000000000","COUNTRY_CODE":"US","REF_FRAME":"TEME","RA_OF_ASC_NODE":"141.6853","GP_ID":"211506705","TIME_SYSTEM":"UTC","LAUNCH_DATE":"2022-05-13","OBJECT_TYPE":"PAYLOAD"},{"RCS_SIZE":"LARGE","CLASSIFICATION_TYPE":"U","ECCENTRICITY":"0.00021070","BSTAR":"-0.00123070000000","ELEMENT_SET_NO":"999","PERIAPSIS":"538.232","MEAN_ELEMENT_THEORY":"SGP4","FILE":"3554009","MEAN_MOTION_DOT":"-0.00019832","OBJECT_ID":"2022-051AL","DECAY_DATE":null,"ARG_OF_PERICENTER":"59.5655","TLE_LINE1":"1 52567U 22051AL  22244.91667824 -.00019832  00000-0 -12307-2 0  9992","REV_AT_EPOCH":"130","SITE":"AFWTR","OBJECT_NAME":"STARLINK-3929","MEAN_ANOMALY":"330.2758","MEAN_MOTION":"15.08858333","NORAD_CAT_ID":"52567","SEMIMAJOR_AXIS":"6917.824","APOAPSIS":"541.147","INCLINATION":"53.2146","EPOCH":"2022-09-01T22:00:00.999936","PERIOD":"95.436","CENTER_NAME":"EARTH","EPHEMERIS_TYPE":"0","LAUNCH_DATE":"2022-05-13","TIME_SYSTEM":"UTC","GP_ID":"211506276","OBJECT_TYPE":"PAYLOAD","MEAN_MOTION_DDOT":"0.0000000000000","TLE_LINE2":"2 52567  53.2146 126.6874 0002107  59.5655 330.2758 15.08858333  1303","RA_OF_ASC_NODE":"126.6874","REF_FRAME":"TEME","COUNTRY_CODE":"US"},{"RCS_SIZE":"LARGE","CLASSIFICATION_TYPE":"U","ECCENTRICITY":"0.00020900","BSTAR":"-0.00311470000000","ELEMENT_SET_NO":"999","PERIAPSIS":"538.227","FILE":"3554009","MEAN_ELEMENT_THEORY":"SGP4","OBJECT_ID":"2022-051AM","MEAN_MOTION_DOT":"-0.00049551","DECAY_DATE":null,"ARG_OF_PERICENTER":"61.3558","TLE_LINE1":"1 52568U 22051AM  22244.91667824 -.00049551  00000-0 -31147-2 0  9997","SITE":"AFWTR","REV_AT_EPOCH":"130","OBJECT_NAME":"STARLINK-3930","MEAN_ANOMALY":"28.5248","MEAN_MOTION":"15.08863713","NORAD_CAT_ID":"52568","SEMIMAJOR_AXIS":"6917.808","APOAPSIS":"541.119","EPOCH":"2022-09-01T22:00:00.999936","INCLINATION":"53.2156","PERIOD":"95.436","CENTER_NAME":"EARTH","EPHEMERIS_TYPE":"0","LAUNCH_DATE":"2022-05-13","TIME_SYSTEM":"UTC","GP_ID":"211506562","OBJECT_TYPE":"PAYLOAD","MEAN_MOTION_DDOT":"0.0000000000000","TLE_LINE2":"2 52568  53.2156 126.6887 0002090  61.3558  28.5248 15.08863713  1302","RA_OF_ASC_NODE":"126.6887","REF_FRAME":"TEME","COUNTRY_CODE":"US"},{"NORAD_CAT_ID":"52569","SEMIMAJOR_AXIS":"6917.893","MEAN_MOTION":"15.08835716","MEAN_ANOMALY":"350.7328","PERIOD":"95.438","EPHEMERIS_TYPE":"0","CENTER_NAME":"EARTH","APOAPSIS":"541.084","INCLINATION":"53.2156","EPOCH":"2022-09-01T22:00:00.999936","OBJECT_TYPE":"PAYLOAD","TIME_SYSTEM":"UTC","LAUNCH_DATE":"2022-05-13","GP_ID":"211506419","COUNTRY_CODE":"US","RA_OF_ASC_NODE":"126.6881","REF_FRAME":"TEME","MEAN_MOTION_DDOT":"0.0000000000000","TLE_LINE2":"2 52569  53.2156 126.6881 0001916  59.1225 350.7328 15.08835716  1300","CLASSIFICATION_TYPE":"U","ECCENTRICITY":"0.00019160","BSTAR":"-0.00123680000000","RCS_SIZE":"LARGE","ELEMENT_SET_NO":"999","MEAN_ELEMENT_THEORY":"SGP4","FILE":"3554009","PERIAPSIS":"538.433","OBJECT_ID":"2022-051AN","MEAN_MOTION_DOT":"-0.00019916","OBJECT_NAME":"STARLINK-3927","DECAY_DATE":null,"SITE":"AFWTR","REV_AT_EPOCH":"130","ARG_OF_PERICENTER":"59.1225","TLE_LINE1":"1 52569U 22051AN  22244.91667824 -.00019916  00000-0 -12368-2 0  9994"},{"OBJECT_TYPE":"PAYLOAD","LAUNCH_DATE":"2022-05-13","TIME_SYSTEM":"UTC","GP_ID":"211506862","RA_OF_ASC_NODE":"126.6865","REF_FRAME":"TEME","COUNTRY_CODE":"US","MEAN_MOTION_DDOT":"0.0000000000000","TLE_LINE2":"2 52570  53.2147 126.6865 0001913  64.0814  45.7703 15.08853908  1301","NORAD_CAT_ID":"52570","SEMIMAJOR_AXIS":"6917.838","MEAN_ANOMALY":"45.7703","MEAN_MOTION":"15.08853908","PERIOD":"95.437","CENTER_NAME":"EARTH","EPHEMERIS_TYPE":"0","APOAPSIS":"541.026","EPOCH":"2022-09-01T22:00:00.999936","INCLINATION":"53.2147","PERIAPSIS":"538.379","MEAN_ELEMENT_THEORY":"SGP4","FILE":"3554009","OBJECT_ID":"2022-051AP","MEAN_MOTION_DOT":"-0.00018142","OBJECT_NAME":"STARLINK-3924","DECAY_DATE":null,"ARG_OF_PERICENTER":"64.0814","TLE_LINE1":"1 52570U 22051AP  22244.91667824 -.00018142  00000-0 -11242-2 0  9996","SITE":"AFWTR","REV_AT_EPOCH":"130","CLASSIFICATION_TYPE":"U","BSTAR":"-0.00112420000000","ECCENTRICITY":"0.00019130","RCS_SIZE":"LARGE","ELEMENT_SET_NO":"999"},{"OBJECT_TYPE":"PAYLOAD","GP_ID":"211506706","TIME_SYSTEM":"UTC","LAUNCH_DATE":"2022-05-13","COUNTRY_CODE":"US","RA_OF_ASC_NODE":"126.6185","REF_FRAME":"TEME","TLE_LINE2":"2 52574  53.2159 126.6185 0002290  67.5918  40.9599 15.07220262  1305","MEAN_MOTION_DDOT":"0.0000000000000","SEMIMAJOR_AXIS":"6922.836","NORAD_CAT_ID":"52574","MEAN_MOTION":"15.07220262","MEAN_ANOMALY":"40.9599","EPHEMERIS_TYPE":"0","CENTER_NAME":"EARTH","PERIOD":"95.540","EPOCH":"2022-09-01T22:00:00.999936","INCLINATION":"53.2159","APOAPSIS":"546.286","MEAN_MOTION_DOT":"-0.00018923","OBJECT_ID":"2022-051AQ","MEAN_ELEMENT_THEORY":"SGP4","FILE":"3554009","PERIAPSIS":"543.115","OBJECT_NAME":"STARLINK-3901","REV_AT_EPOCH":"130","SITE":"AFWTR","TLE_LINE1":"1 52574U 22051AQ  22244.91667824 -.00018923  00000-0 -12272-2 0  9991","ARG_OF_PERICENTER":"67.5918","DECAY_DATE":null,"ECCENTRICITY":"0.00022900","BSTAR":"-0.00122720000000","CLASSIFICATION_TYPE":"U","RCS_SIZE":"LARGE","ELEMENT_SET_NO":"999"},{"DECAY_DATE":null,"TLE_LINE1":"1 52575U 22051AR  22244.91667824 -.00016959  00000-0 -10497-2 0  9996","ARG_OF_PERICENTER":"64.4840","REV_AT_EPOCH":"130","SITE":"AFWTR","OBJECT_NAME":"STARLINK-3920","PERIAPSIS":"538.045","FILE":"3554009","MEAN_ELEMENT_THEORY":"SGP4","OBJECT_ID":"2022-051AR","MEAN_MOTION_DOT":"-0.00016959","ELEMENT_SET_NO":"999","RCS_SIZE":"LARGE","CLASSIFICATION_TYPE":"U","BSTAR":"-0.00104970000000","ECCENTRICITY":"0.00024360","MEAN_MOTION_DDOT":"0.0000000000000","TLE_LINE2":"2 52575  53.2146 126.6824 0002436  64.4840  65.3913 15.08844940  1301","RA_OF_ASC_NODE":"126.6824","REF_FRAME":"TEME","COUNTRY_CODE":"US","LAUNCH_DATE":"2022-05-13","TIME_SYSTEM":"UTC","GP_ID":"211506277","OBJECT_TYPE":"PAYLOAD","APOAPSIS":"541.415","INCLINATION":"53.2146","EPOCH":"2022-09-01T22:00:00.999936","PERIOD":"95.437","CENTER_NAME":"EARTH","EPHEMERIS_TYPE":"0","MEAN_ANOMALY":"65.3913","MEAN_MOTION":"15.08844940","NORAD_CAT_ID":"52575","SEMIMAJOR_AXIS":"6917.865"},{"TLE_LINE2":"2 52576  53.2155 126.6773 0002343  56.9083 107.7697 15.08841308  1302","MEAN_MOTION_DDOT":"0.0000000000000","RA_OF_ASC_NODE":"126.6773","REF_FRAME":"TEME","COUNTRY_CODE":"US","GP_ID":"211506563","LAUNCH_DATE":"2022-05-13","TIME_SYSTEM":"UTC","OBJECT_TYPE":"PAYLOAD","INCLINATION":"53.2155","EPOCH":"2022-09-01T22:00:00.999936","APOAPSIS":"541.362","CENTER_NAME":"EARTH","EPHEMERIS_TYPE":"0","PERIOD":"95.437","MEAN_ANOMALY":"107.7697","MEAN_MOTION":"15.08841308","SEMIMAJOR_AXIS":"6917.876","NORAD_CAT_ID":"52576","TLE_LINE1":"1 52576U 22051AS  22244.91667824 -.00015815  00000-0 -97766-3 0  9992","ARG_OF_PERICENTER":"56.9083","REV_AT_EPOCH":"130","SITE":"AFWTR","DECAY_DATE":null,"OBJECT_NAME":"STARLINK-3932","OBJECT_ID":"2022-051AS","MEAN_MOTION_DOT":"-0.00015815","PERIAPSIS":"538.121","MEAN_ELEMENT_THEORY":"SGP4","FILE":"3554009","ELEMENT_SET_NO":"999","RCS_SIZE":"LARGE","BSTAR":"-0.00097766000000","ECCENTRICITY":"0.00023430","CLASSIFICATION_TYPE":"U"}];
